{
    "links": {
        "self": "http://www.neowsapp.com/rest/v1/neo/3986734?api_key=iIulBulltgU6a56xZRHN4H3l9WmuAYTsLGpBGhQ2"
    },
    "id": "3986734",
    "neo_reference_id": "3986734",
    "name": "(2020 BR)",
    "designation": "2020 BR",
    "nasa_jpl_url": "http://ssd.jpl.nasa.gov/sbdb.cgi?sstr=3986734",
    "absolute_magnitude_h": 22.986,
    "estimated_diameter": {
        "kilometers": {
            "estimated_diameter_min": 0.0671977879,
            "estimated_diameter_max": 0.1502588217
        },
        "meters": {
            "estimated_diameter_min": 67.197787894,
            "estimated_diameter_max": 150.2588216686
        },
        "miles": {
            "estimated_diameter_min": 0.0417547567,
            "estimated_diameter_max": 0.0933664743
        },
        "feet": {
            "estimated_diameter_min": 220.4651904341,
            "estimated_diameter_max": 492.9751524831
        }
    },
    "is_potentially_hazardous_asteroid": false,
    "close_approach_data": [
        {
            "close_approach_date": "2020-01-23",
            "close_approach_date_full": "2020-Jan-23 05:15",
            "epoch_date_close_approach": 1579756500000,
            "relative_velocity": {
                "kilometers_per_second": "32.9338808901",
                "kilometers_per_hour": "118561.9712043269",
                "miles_per_hour": "73669.7981630441"
            },
            "miss_distance": {
                "astronomical": "0.0517833631",
                "lunar": "20.1437282459",
                "kilometers": "7746680.821196597",
                "miles": "4813564.2543511586"
            },
            "orbiting_body": "Earth"
        }
    ],
    "orbital_data": {
        "orbit_id": "7",
        "orbit_determination_date": "2020-01-25 05:44:26",
        "first_observation_date": "2020-01-18",
        "last_observation_date": "2020-01-23",
        "data_arc_in_days": 5,
        "observations_used": 89,
        "orbit_uncertainty": "9",
        "minimum_orbit_intersection": ".0471477",
        "jupiter_tisserand_invariant": "3.280",
        "epoch_osculation": "2458868.5",
        "eccentricity": ".8361505207413643",
        "semi_major_axis": "1.89748572248924",
        "inclination": "35.73564634284303",
        "ascending_node_longitude": "298.025330098162",
        "orbital_period": "954.6984160164209",
        "perihelion_distance": ".3109020475305581",
        "perihelion_argument": "305.2882056936262",
        "aphelion_distance": "3.484069397447922",
        "perihelion_time": "2458914.902604695255",
        "mean_anomaly": "342.5023929965288",
        "mean_motion": ".3770824314364506",
        "equinox": "J2000",
        "orbit_class": {
            "orbit_class_type": "APO",
            "orbit_class_description": "Near-Earth asteroid orbits which cross the Earth’s orbit similar to that of 1862 Apollo",
            "orbit_class_range": "a (semi-major axis) > 1.0 AU; q (perihelion) < 1.017 AU"
        }
    },
    "is_sentry_object": false
}